ONEWEB-0350             
1 49214U 21083AE  24147.93271372 -.00015836  00000+0 -43548-1 0  9995
2 49214  87.8914 109.7559 0002628  78.2064 281.9359 13.13352298133618
ONEWEB-0351             
1 49215U 21083AF  24148.20637630 -.00003298  00000+0 -81438-2 0  9990
2 49215  87.9222  63.8656 0002807  94.0974 266.0480 13.20786851138950
ONEWEB-0352             
1 49216U 21083AG  24147.91354276 -.00000220  00000+0 -63683-3 0  9995
2 49216  87.8919 109.7901 0002306  86.0171 274.1222 13.13467500133701
ONEWEB-0354             
1 49217U 21083AH  24147.77721837  .00000348  00000+0  82313-3 0  9991
2 49217  87.9237  63.9361 0001909  60.5625 299.5698 13.20765601137620
ONEWEB-0355             
1 49218U 21083AJ  24147.94371052  .00000107  00000+0  25812-3 0  9995
2 49218  87.8915 109.7831 0002127  79.1930 280.9439 13.13469537132287
ONEWEB-0357             
1 49219U 21083AK  24147.84981070 -.00000303  00000+0 -77712-3 0  9998
2 49219  87.9220  63.9393 0001745  64.5004 295.6309 13.20776638137631
ONEWEB-0332             
1 49279U 21090A   24148.08833611  .00000428  00000+0  11199-2 0  9998
2 49279  87.8977  79.1662 0002626  91.8880 268.2550 13.14498375128903
ONEWEB-0347             
1 49280U 21090B   24147.84034597  .00000043  00000+0  73336-4 0  9995
2 49280  87.9220  63.9397 0002070  92.4472 267.6899 13.20769578131861
